[{"OBJECT_NAME":"STARLINK-5479","OBJECT_ID":"2023-021AL","EPOCH":"2026-03-09T15:40:35.802624","MEAN_MOTION":14.97521079,"ECCENTRICITY":0.00030974,"INCLINATION":70.0006,"RA_OF_ASC_NODE":164.3838,"ARG_OF_PERICENTER":266.5141,"MEAN_ANOMALY":93.5663,"EPHEMERIS_TYPE":0,"CLASSIFICATION_TYPE":"U","NORAD_CAT_ID":55662,"ELEMENT_SET_NO":999,"REV_AT_EPOCH":16928,"BSTAR":-5.6671748e-5,"MEAN_MOTION_DOT":-7.54e-6,"MEAN_MOTION_DDOT":0},{"OBJECT_NAME":"COSMOS 2251 DEB","OBJECT_ID":"1993-036JZ","EPOCH":"2026-03-09T18:09:16.017696","MEAN_MOTION":14.82070452,"ECCENTRICITY":0.00681609,"INCLINATION":74.0283,"RA_OF_ASC_NODE":326.4344,"ARG_OF_PERICENTER":22.7966,"MEAN_ANOMALY":32.3865,"EPHEMERIS_TYPE":0,"CLASSIFICATION_TYPE":"U","NORAD_CAT_ID":34062,"ELEMENT_SET_NO":999,"REV_AT_EPOCH":89883,"BSTAR":0.001971192,"MEAN_MOTION_DOT":0.00016317,"MEAN_MOTION_DDOT":0}]
